[{"OBJECT_NAME":"GONETS-M 8","OBJECT_ID":"2014-036A","EPOCH":"2026-03-09T23:06:24.668064","MEAN_MOTION":12.42981523,"ECCENTRICITY":0.00305366,"INCLINATION":82.516,"RA_OF_ASC_NODE":9.2142,"ARG_OF_PERICENTER":7.6012,"MEAN_ANOMALY":352.5524,"EPHEMERIS_TYPE":0,"CLASSIFICATION_TYPE":"U","NORAD_CAT_ID":40061,"ELEMENT_SET_NO":999,"REV_AT_EPOCH":53012,"BSTAR":-0.00041250717,"MEAN_MOTION_DOT":-4.7e-7,"MEAN_MOTION_DDOT":0},{"OBJECT_NAME":"SL-14 R\/B","OBJECT_ID":"1986-094B","EPOCH":"2026-03-09T12:10:29.869824","MEAN_MOTION":12.42050449,"ECCENTRICITY":0.00023362,"INCLINATION":82.6021,"RA_OF_ASC_NODE":63.4482,"ARG_OF_PERICENTER":2.5992,"MEAN_ANOMALY":117.1509,"EPHEMERIS_TYPE":0,"CLASSIFICATION_TYPE":"U","NORAD_CAT_ID":17178,"ELEMENT_SET_NO":999,"REV_AT_EPOCH":78023,"BSTAR":-5.3450611e-5,"MEAN_MOTION_DOT":3.0e-8,"MEAN_MOTION_DDOT":0}]
